LEMUR-2-TARTIFLETTE     
1 66784U 25276DZ  26117.42700397  .00008578  00000+0  72237-3 0  9993
2 66784  97.5297 189.8221 0011709 315.5535  44.4748 14.98400970 22599
LEMUR-2-VUKASIN         
1 66785U 25276EA  26117.46512941  .00009027  00000+0  73524-3 0  9994
2 66785  97.5241 190.0492 0006046 300.7848  59.2780 14.99712445 22543
LEMUR-2-HOTSPUR-TOM     
1 66786U 25276EB  26117.48358913  .00008061  00000+0  67948-3 0  9994
2 66786  97.5268 189.8729 0011961 308.2975  51.7171 14.98379643 22536
LEMUR-2-MYRA            
1 66787U 25276EC  26117.09261700  .00006029  00000+0  49294-3 0  9995
2 66787  97.5312 189.6492 0010975 322.5053  37.5404 14.99669939 22556
LEMUR-2 FIKRETDENGIZ    
1 67363U 26004A   26117.23374760  .00005590  00000+0  61553-3 0  9997
2 67363  97.8020 116.5920 0007441 317.1744  42.8892 14.87931075 15701
LEMUR-2-CALLUM-K-J      
1 67364U 26004B   26117.24045153  .00002065  00000+0  23356-3 0  9993
2 67364  97.8064 116.6275 0007230 303.7634  56.2893 14.87524130 15710
LEMUR-2-MARIO-SOUSA     
1 67365U 26004C   26116.95420914  .00005444  00000+0  59736-3 0  9998
2 67365  97.7998 116.3153 0007054 320.1963  39.8735 14.88086898 15672
LEMUR-2-SONNENBLUME     
1 67367U 26004E   26117.21747354  .00003938  00000+0  43429-3 0  9998
2 67367  97.7989 116.5731 0006826 321.0087  39.0637 14.88049551 15714
LEMUR-2-WOBLER          
1 67368U 26004F   26117.28316670  .00005687  00000+0  62313-3 0  9995
2 67368  97.8046 116.7125 0006520 308.8341  51.2293 14.88133387 15722
LEMUR-2-GRAM-E-SUE      
1 67370U 26004H   26117.27474176  .00006077  00000+0  66392-3 0  9998
2 67370  97.7978 116.6394 0005915 325.7293  34.3541 14.88225258 15723
LEMUR-2-KATIE           
1 67387U 26004AA  26117.24670862  .00005213  00000+0  55015-3 0  9994
2 67387  97.8039 116.9101 0001311 248.6936 111.4141 14.89706054 15724
LEMUR-2-HCS-BAZUS       
1 67388U 26004AB  26117.31148304  .00005686  00000+0  60101-3 0  9990
2 67388  97.8031 116.9657 0000971 223.7483 136.3657 14.89603318 15733
