[{"OBJECT_NAME":"LEMUR-2-TARTIFLETTE","OBJECT_ID":"2025-276DZ","EPOCH":"2026-04-27T10:14:53.143008","MEAN_MOTION":14.9840097,"ECCENTRICITY":0.0011709,"INCLINATION":97.5297,"RA_OF_ASC_NODE":189.8221,"ARG_OF_PERICENTER":315.5535,"MEAN_ANOMALY":44.4748,"EPHEMERIS_TYPE":0,"CLASSIFICATION_TYPE":"U","NORAD_CAT_ID":66784,"ELEMENT_SET_NO":999,"REV_AT_EPOCH":2259,"BSTAR":0.00072237,"MEAN_MOTION_DOT":8.578e-5,"MEAN_MOTION_DDOT":0},{"OBJECT_NAME":"LEMUR-2-VUKASIN","OBJECT_ID":"2025-276EA","EPOCH":"2026-04-27T11:09:47.181024","MEAN_MOTION":14.99712445,"ECCENTRICITY":0.0006046,"INCLINATION":97.5241,"RA_OF_ASC_NODE":190.0492,"ARG_OF_PERICENTER":300.7848,"MEAN_ANOMALY":59.278,"EPHEMERIS_TYPE":0,"CLASSIFICATION_TYPE":"U","NORAD_CAT_ID":66785,"ELEMENT_SET_NO":999,"REV_AT_EPOCH":2254,"BSTAR":0.00073524,"MEAN_MOTION_DOT":9.027e-5,"MEAN_MOTION_DDOT":0},{"OBJECT_NAME":"LEMUR-2-HOTSPUR-TOM","OBJECT_ID":"2025-276EB","EPOCH":"2026-04-27T11:36:22.100832","MEAN_MOTION":14.98379643,"ECCENTRICITY":0.0011961,"INCLINATION":97.5268,"RA_OF_ASC_NODE":189.8729,"ARG_OF_PERICENTER":308.2975,"MEAN_ANOMALY":51.7171,"EPHEMERIS_TYPE":0,"CLASSIFICATION_TYPE":"U","NORAD_CAT_ID":66786,"ELEMENT_SET_NO":999,"REV_AT_EPOCH":2253,"BSTAR":0.00067948,"MEAN_MOTION_DOT":8.061e-5,"MEAN_MOTION_DDOT":0},{"OBJECT_NAME":"LEMUR-2-MYRA","OBJECT_ID":"2025-276EC","EPOCH":"2026-04-27T02:13:22.108800","MEAN_MOTION":14.99669939,"ECCENTRICITY":0.00109752,"INCLINATION":97.5312,"RA_OF_ASC_NODE":189.6492,"ARG_OF_PERICENTER":322.5053,"MEAN_ANOMALY":37.5404,"EPHEMERIS_TYPE":0,"CLASSIFICATION_TYPE":"U","NORAD_CAT_ID":66787,"ELEMENT_SET_NO":999,"REV_AT_EPOCH":2255,"BSTAR":0.00049294055,"MEAN_MOTION_DOT":6.029e-5,"MEAN_MOTION_DDOT":0},{"OBJECT_NAME":"LEMUR-2 FIKRETDENGIZ","OBJECT_ID":"2026-004A","EPOCH":"2026-04-27T05:36:35.792640","MEAN_MOTION":14.87931075,"ECCENTRICITY":0.0007441,"INCLINATION":97.802,"RA_OF_ASC_NODE":116.592,"ARG_OF_PERICENTER":317.1744,"MEAN_ANOMALY":42.8892,"EPHEMERIS_TYPE":0,"CLASSIFICATION_TYPE":"U","NORAD_CAT_ID":67363,"ELEMENT_SET_NO":999,"REV_AT_EPOCH":1570,"BSTAR":0.00061553,"MEAN_MOTION_DOT":5.59e-5,"MEAN_MOTION_DDOT":0},{"OBJECT_NAME":"LEMUR-2-CALLUM-K-J","OBJECT_ID":"2026-004B","EPOCH":"2026-04-27T05:46:15.012192","MEAN_MOTION":14.8752413,"ECCENTRICITY":0.000723,"INCLINATION":97.8064,"RA_OF_ASC_NODE":116.6275,"ARG_OF_PERICENTER":303.7634,"MEAN_ANOMALY":56.2893,"EPHEMERIS_TYPE":0,"CLASSIFICATION_TYPE":"U","NORAD_CAT_ID":67364,"ELEMENT_SET_NO":999,"REV_AT_EPOCH":1571,"BSTAR":0.00023356,"MEAN_MOTION_DOT":2.065e-5,"MEAN_MOTION_DDOT":0},{"OBJECT_NAME":"LEMUR-2-MARIO-SOUSA","OBJECT_ID":"2026-004C","EPOCH":"2026-04-26T22:54:03.669696","MEAN_MOTION":14.88086898,"ECCENTRICITY":0.0007054,"INCLINATION":97.7998,"RA_OF_ASC_NODE":116.3153,"ARG_OF_PERICENTER":320.1963,"MEAN_ANOMALY":39.8735,"EPHEMERIS_TYPE":0,"CLASSIFICATION_TYPE":"U","NORAD_CAT_ID":67365,"ELEMENT_SET_NO":999,"REV_AT_EPOCH":1567,"BSTAR":0.00059736,"MEAN_MOTION_DOT":5.444e-5,"MEAN_MOTION_DDOT":0},{"OBJECT_NAME":"LEMUR-2-SONNENBLUME","OBJECT_ID":"2026-004E","EPOCH":"2026-04-27T05:13:09.713856","MEAN_MOTION":14.88049551,"ECCENTRICITY":0.0006826,"INCLINATION":97.7989,"RA_OF_ASC_NODE":116.5731,"ARG_OF_PERICENTER":321.0087,"MEAN_ANOMALY":39.0637,"EPHEMERIS_TYPE":0,"CLASSIFICATION_TYPE":"U","NORAD_CAT_ID":67367,"ELEMENT_SET_NO":999,"REV_AT_EPOCH":1571,"BSTAR":0.00043429,"MEAN_MOTION_DOT":3.938e-5,"MEAN_MOTION_DDOT":0},{"OBJECT_NAME":"LEMUR-2-WOBLER","OBJECT_ID":"2026-004F","EPOCH":"2026-04-27T06:47:45.602880","MEAN_MOTION":14.88133387,"ECCENTRICITY":0.000652,"INCLINATION":97.8046,"RA_OF_ASC_NODE":116.7125,"ARG_OF_PERICENTER":308.8341,"MEAN_ANOMALY":51.2293,"EPHEMERIS_TYPE":0,"CLASSIFICATION_TYPE":"U","NORAD_CAT_ID":67368,"ELEMENT_SET_NO":999,"REV_AT_EPOCH":1572,"BSTAR":0.00062313,"MEAN_MOTION_DOT":5.687e-5,"MEAN_MOTION_DDOT":0},{"OBJECT_NAME":"LEMUR-2-GRAM-E-SUE","OBJECT_ID":"2026-004H","EPOCH":"2026-04-27T06:35:37.688064","MEAN_MOTION":14.88225258,"ECCENTRICITY":0.0005915,"INCLINATION":97.7978,"RA_OF_ASC_NODE":116.6394,"ARG_OF_PERICENTER":325.7293,"MEAN_ANOMALY":34.3541,"EPHEMERIS_TYPE":0,"CLASSIFICATION_TYPE":"U","NORAD_CAT_ID":67370,"ELEMENT_SET_NO":999,"REV_AT_EPOCH":1572,"BSTAR":0.00066392,"MEAN_MOTION_DOT":6.077e-5,"MEAN_MOTION_DDOT":0},{"OBJECT_NAME":"LEMUR-2-KATIE","OBJECT_ID":"2026-004AA","EPOCH":"2026-04-27T05:55:15.624768","MEAN_MOTION":14.89706054,"ECCENTRICITY":0.0001311,"INCLINATION":97.8039,"RA_OF_ASC_NODE":116.9101,"ARG_OF_PERICENTER":248.6936,"MEAN_ANOMALY":111.4141,"EPHEMERIS_TYPE":0,"CLASSIFICATION_TYPE":"U","NORAD_CAT_ID":67387,"ELEMENT_SET_NO":999,"REV_AT_EPOCH":1572,"BSTAR":0.00055015,"MEAN_MOTION_DOT":5.213e-5,"MEAN_MOTION_DDOT":0},{"OBJECT_NAME":"LEMUR-2-HCS-BAZUS","OBJECT_ID":"2026-004AB","EPOCH":"2026-04-27T07:28:32.134656","MEAN_MOTION":14.89603318,"ECCENTRICITY":9.71e-5,"INCLINATION":97.8031,"RA_OF_ASC_NODE":116.9657,"ARG_OF_PERICENTER":223.7483,"MEAN_ANOMALY":136.3657,"EPHEMERIS_TYPE":0,"CLASSIFICATION_TYPE":"U","NORAD_CAT_ID":67388,"ELEMENT_SET_NO":999,"REV_AT_EPOCH":1573,"BSTAR":0.00060101,"MEAN_MOTION_DOT":5.686e-5,"MEAN_MOTION_DDOT":0}]
